{"type": "FeatureCollection", "features": [ {"type": "Feature", "properties": {"norad_id": 34750, "name": "COSMOS 2251 DEB", "group": "cosmos-2251-debris", "lat": -9.541011526907374, "lon": 173.07438380652258, "alt_km": 710.9914460485033, "timestamp": "2025-12-26T08:37:54.974701+00:00", "meta": {"OBJECT_NAME": "COSMOS 2251 DEB", "OBJECT_ID": "1993-036ZU", "EPOCH": "2025-12-25T21:44:05.752032", "MEAN_MOTION": 14.61453525, "ECCENTRICITY": 0.0038249, "INCLINATION": 74.107, "RA_OF_ASC_NODE": 176.6835, "ARG_OF_PERICENTER": 125.1778, "MEAN_ANOMALY": 357.4944, "EPHEMERIS_TYPE": 0, "CLASSIFICATION_TYPE": "U", "NORAD_CAT_ID": 34750, "ELEMENT_SET_NO": 999, "REV_AT_EPOCH": 88423, "BSTAR": 0.0012017, "MEAN_MOTION_DOT": 5.991e-05, "MEAN_MOTION_DDOT": 0}, "tle": {"line1": "1 34750U 93036ZU  25359.90562213  .00005991  00000+0  12017-2 0  9998", "line2": "2 34750  74.1070 176.6835 0038249 125.1778 357.4944 14.61453525884230"}}, "geometry": {"type": "Point", "coordinates": [173.07438380652258, -9.541011526907374]}}, {"type": "Feature", "properties": {"norad_id": 34752, "name": "COSMOS 2251 DEB", "group": "cosmos-2251-debris", "lat": -45.12550802390682, "lon": 169.61404605826147, "alt_km": 593.8897225565388, "timestamp": "2025-12-26T08:37:54.974711+00:00", "meta": {"OBJECT_NAME": "COSMOS 2251 DEB", "OBJECT_ID": "1993-036ZW", "EPOCH": "2025-12-25T23:37:25.045824", "MEAN_MOTION": 15.00235856, "ECCENTRICITY": 0.0047554, "INCLINATION": 74.0135, "RA_OF_ASC_NODE": 333.6429, "ARG_OF_PERICENTER": 97.782, "MEAN_ANOMALY": 262.877, "EPHEMERIS_TYPE": 0, "CLASSIFICATION_TYPE": "U", "NORAD_CAT_ID": 34752, "ELEMENT_SET_NO": 999, "REV_AT_EPOCH": 90048, "BSTAR": 0.001023, "MEAN_MOTION_DOT": 0.00013096, "MEAN_MOTION_DDOT": 0}, "tle": {"line1": "1 34752U 93036ZW  25359.98431766  .00013096  00000+0  10230-2 0  9996", "line2": "2 34752  74.0135 333.6429 0047554  97.7820 262.8770 15.00235856900489"}}, "geometry": {"type": "Point", "coordinates": [169.61404605826147, -45.12550802390682]}}, {"type": "Feature", "properties": {"norad_id": 34754, "name": "COSMOS 2251 DEB", "group": "cosmos-2251-debris", "lat": 17.487298554892096, "lon": 17.23212071766036, "alt_km": 776.2342325450181, "timestamp": "2025-12-26T08:37:54.974721+00:00", "meta": {"OBJECT_NAME": "COSMOS 2251 DEB", "OBJECT_ID": "1993-036ZY", "EPOCH": "2025-12-26T00:15:18.741312", "MEAN_MOTION": 14.40499121, "ECCENTRICITY": 0.0030033, "INCLINATION": 74.0288, "RA_OF_ASC_NODE": 203.0543, "ARG_OF_PERICENTER": 316.6851, "MEAN_ANOMALY": 195.8731, "EPHEMERIS_TYPE": 0, "CLASSIFICATION_TYPE": "U", "NORAD_CAT_ID": 34754, "ELEMENT_SET_NO": 999, "REV_AT_EPOCH": 88324, "BSTAR": 0.00019034, "MEAN_MOTION_DOT": 5.82e-06, "MEAN_MOTION_DDOT": 0}, "tle": {"line1": "1 34754U 93036ZY  25360.01063358  .00000582  00000+0  19034-3 0  9990", "line2": "2 34754  74.0288 203.0543 0030033 316.6851 195.8731 14.40499121883244"}}, "geometry": {"type": "Point", "coordinates": [17.23212071766036, 17.487298554892096]}}, {"type": "Feature", "properties": {"norad_id": 34755, "name": "COSMOS 2251 DEB", "group": "cosmos-2251-debris", "lat": -0.8235476092732809, "lon": 88.37116835521871, "alt_km": 1138.7055163301966, "timestamp": "2025-12-26T08:37:54.974731+00:00", "meta": {"OBJECT_NAME": "COSMOS 2251 DEB", "OBJECT_ID": "1993-036ZZ", "EPOCH": "2025-12-25T10:58:37.231104", "MEAN_MOTION": 13.50579623, "ECCENTRICITY": 0.0407887, "INCLINATION": 73.9257, "RA_OF_ASC_NODE": 269.5833, "ARG_OF_PERICENTER": 287.1758, "MEAN_ANOMALY": 192.7333, "EPHEMERIS_TYPE": 0, "CLASSIFICATION_TYPE": "U", "NORAD_CAT_ID": 34755, "ELEMENT_SET_NO": 999, "REV_AT_EPOCH": 82695, "BSTAR": 0.00071737, "MEAN_MOTION_DOT": 7.49e-06, "MEAN_MOTION_DDOT": 0}, "tle": {"line1": "1 34755U 93036ZZ  25359.45737536  .00000749  00000+0  71737-3 0  9996", "line2": "2 34755  73.9257 269.5833 0407887 287.1758 192.7333 13.50579623826956"}}, "geometry": {"type": "Point", "coordinates": [88.37116835521871, -0.8235476092732809]}}, {"type": "Feature", "properties": {"norad_id": 34756, "name": "COSMOS 2251 DEB", "group": "cosmos-2251-debris", "lat": -5.539207000680483, "lon": -96.43383433976274, "alt_km": 1168.7600519501993, "timestamp": "2025-12-26T08:37:54.974741+00:00", "meta": {"OBJECT_NAME": "COSMOS 2251 DEB", "OBJECT_ID": "1993-036AAA", "EPOCH": "2025-12-24T15:18:41.454720", "MEAN_MOTION": 13.67272702, "ECCENTRICITY": 0.0345926, "INCLINATION": 74.0032, "RA_OF_ASC_NODE": 84.8024, "ARG_OF_PERICENTER": 318.0621, "MEAN_ANOMALY": 39.4462, "EPHEMERIS_TYPE": 0, "CLASSIFICATION_TYPE": "U", "NORAD_CAT_ID": 34756, "ELEMENT_SET_NO": 999, "REV_AT_EPOCH": 83584, "BSTAR": 0.0010747811, "MEAN_MOTION_DOT": 1.342e-05, "MEAN_MOTION_DDOT": 0}, "tle": {"line1": "1 34756U 93036AAA 25358.63797980  .00001342  00000+0  10748-2 0  9999", "line2": "2 34756  74.0032  84.8024 0345926 318.0621  39.4462 13.67272702835842"}}, "geometry": {"type": "Point", "coordinates": [-96.43383433976274, -5.539207000680483]}}, {"type": "Feature", "properties": {"norad_id": 34758, "name": "COSMOS 2251 DEB", "group": "cosmos-2251-debris", "lat": -31.231866134799276, "lon": 107.52542104881147, "alt_km": 1330.4840044587263, "timestamp": "2025-12-26T08:37:54.974751+00:00", "meta": {"OBJECT_NAME": "COSMOS 2251 DEB", "OBJECT_ID": "1993-036AAC", "EPOCH": "2025-12-25T01:33:06.423552", "MEAN_MOTION": 13.58115883, "ECCENTRICITY": 0.03824027, "INCLINATION": 74.107, "RA_OF_ASC_NODE": 279.661, "ARG_OF_PERICENTER": 40.5031, "MEAN_ANOMALY": 322.3879, "EPHEMERIS_TYPE": 0, "CLASSIFICATION_TYPE": "U", "NORAD_CAT_ID": 34758, "ELEMENT_SET_NO": 999, "REV_AT_EPOCH": 83077, "BSTAR": 0.0017795069, "MEAN_MOTION_DOT": 2.058e-05, "MEAN_MOTION_DDOT": 0}, "tle": {"line1": "1 34758U 93036AAC 25359.06465768  .00002058  00000+0  17795-2 0  9999", "line2": "2 34758  74.1070 279.6610 0382402  40.5031 322.3879 13.58115883830773"}}, "geometry": {"type": "Point", "coordinates": [107.52542104881147, -31.231866134799276]}}, {"type": "Feature", "properties": {"norad_id": 34760, "name": "COSMOS 2251 DEB", "group": "cosmos-2251-debris", "lat": -50.92121562456008, "lon": 118.65484759798127, "alt_km": 836.7461174926548, "timestamp": "2025-12-26T08:37:54.974762+00:00", "meta": {"OBJECT_NAME": "COSMOS 2251 DEB", "OBJECT_ID": "1993-036AAE", "EPOCH": "2025-12-25T11:47:05.253792", "MEAN_MOTION": 14.1960114, "ECCENTRICITY": 0.0097301, "INCLINATION": 74.0632, "RA_OF_ASC_NODE": 279.6032, "ARG_OF_PERICENTER": 328.9343, "MEAN_ANOMALY": 148.5075, "EPHEMERIS_TYPE": 0, "CLASSIFICATION_TYPE": "U", "NORAD_CAT_ID": 34760, "ELEMENT_SET_NO": 999, "REV_AT_EPOCH": 86869, "BSTAR": 0.0006002, "MEAN_MOTION_DOT": 1.303e-05, "MEAN_MOTION_DDOT": 0}, "tle": {"line1": "1 34760U 93036AAE 25359.49103303  .00001303  00000+0  60020-3 0  9995", "line2": "2 34760  74.0632 279.6032 0097301 328.9343 148.5075 14.19601140868699"}}, "geometry": {"type": "Point", "coordinates": [118.65484759798127, -50.92121562456008]}}, {"type": "Feature", "properties": {"norad_id": 34761, "name": "COSMOS 2251 DEB", "group": "cosmos-2251-debris", "lat": -19.03139713668999, "lon": -27.977280764838998, "alt_km": 746.1033967096182, "timestamp": "2025-12-26T08:37:54.974772+00:00", "meta": {"OBJECT_NAME": "COSMOS 2251 DEB", "OBJECT_ID": "1993-036AAF", "EPOCH": "2025-12-24T04:58:02.700480", "MEAN_MOTION": 14.38089541, "ECCENTRICITY": 0.00370278, "INCLINATION": 74.0286, "RA_OF_ASC_NODE": 341.6577, "ARG_OF_PERICENTER": 12.6034, "MEAN_ANOMALY": 347.6036, "EPHEMERIS_TYPE": 0, "CLASSIFICATION_TYPE": "U", "NORAD_CAT_ID": 34761, "ELEMENT_SET_NO": 999, "REV_AT_EPOCH": 87814, "BSTAR": 0.00063419722, "MEAN_MOTION_DOT": 1.911e-05, "MEAN_MOTION_DDOT": 0}, "tle": {"line1": "1 34761U 93036AAF 25358.20697570  .00001911  00000+0  63420-3 0  9990", "line2": "2 34761  74.0286 341.6577 0037027  12.6034 347.6036 14.38089541878148"}}, "geometry": {"type": "Point", "coordinates": [-27.977280764838998, -19.03139713668999]}}, {"type": "Feature", "properties": {"norad_id": 34784, "name": "COSMOS 2251 DEB", "group": "cosmos-2251-debris", "lat": -61.14687664949781, "lon": 149.6528294498337, "alt_km": 724.5742240819609, "timestamp": "2025-12-26T08:37:54.974782+00:00", "meta": {"OBJECT_NAME": "COSMOS 2251 DEB", "OBJECT_ID": "1993-036AAM", "EPOCH": "2025-12-25T20:00:36.837216", "MEAN_MOTION": 14.6083756, "ECCENTRICITY": 0.00491076, "INCLINATION": 74.0077, "RA_OF_ASC_NODE": 299.2916, "ARG_OF_PERICENTER": 104.7203, "MEAN_ANOMALY": 255.9413, "EPHEMERIS_TYPE": 0, "CLASSIFICATION_TYPE": "U", "NORAD_CAT_ID": 34784, "ELEMENT_SET_NO": 999, "REV_AT_EPOCH": 88726, "BSTAR": 0.00051075753, "MEAN_MOTION_DOT": 2.509e-05, "MEAN_MOTION_DDOT": 0}, "tle": {"line1": "1 34784U 93036AAM 25359.83375969  .00002509  00000+0  51076-3 0  9998", "line2": "2 34784  74.0077 299.2916 0049107 104.7203 255.9413 14.60837560887269"}}, "geometry": {"type": "Point", "coordinates": [149.6528294498337, -61.14687664949781]}}, {"type": "Feature", "properties": {"norad_id": 34790, "name": "COSMOS 2251 DEB", "group": "cosmos-2251-debris", "lat": 39.3334763141931, "lon": -127.26494484451928, "alt_km": 845.4646803390633, "timestamp": "2025-12-26T08:37:54.974792+00:00", "meta": {"OBJECT_NAME": "COSMOS 2251 DEB", "OBJECT_ID": "1993-036AAT", "EPOCH": "2025-12-25T15:51:16.162272", "MEAN_MOTION": 14.24671167, "ECCENTRICITY": 0.0100473, "INCLINATION": 74.0524, "RA_OF_ASC_NODE": 220.442, "ARG_OF_PERICENTER": 279.3563, "MEAN_ANOMALY": 137.0748, "EPHEMERIS_TYPE": 0, "CLASSIFICATION_TYPE": "U", "NORAD_CAT_ID": 34790, "ELEMENT_SET_NO": 999, "REV_AT_EPOCH": 86757, "BSTAR": 0.00054898, "MEAN_MOTION_DOT": 1.32e-05, "MEAN_MOTION_DDOT": 0}, "tle": {"line1": "1 34790U 93036AAT 25359.66060373  .00001320  00000+0  54898-3 0  9991", "line2": "2 34790  74.0524 220.4420 0100473 279.3563 137.0748 14.24671167867573"}}, "geometry": {"type": "Point", "coordinates": [-127.26494484451928, 39.3334763141931]}}]}